LYNK TOWER 5            
1 59121U 24043Z   26068.92489786  .00009048  00000+0  31902-3 0  9994
2 59121  97.5458 204.7305 0010406 234.6422 125.3846 15.29454506111860
STARLINK-34589          
1 64747U 25144Z   26068.53308031  .00022324  00000+0  76354-3 0  9999
2 64747  53.1599 169.2247 0001155 144.3867 215.7211 15.30202003 39869
